start=new Date('2022-08-06T00:00:00.000Z').valueOf();
sats=[{"OBJECT_NAME":"STARLINK-3081","OBJECT_ID":"2021-082Y","TLE_LINE2":"2 49152  70.0003 322.6663 0003236 254.7178 105.3623 14.96711603 51531","PERIOD":"96.211","DECAY_DATE":null,"SITE":"AFWTR","MEAN_MOTION":"14.96711603","REV_AT_EPOCH":"5153","BSTAR":"-0.00007518400000","CLASSIFICATION_TYPE":"U","MEAN_MOTION_DOT":"-0.00000952","OBJECT_TYPE":"PAYLOAD","PERIAPSIS":"574.816","COUNTRY_CODE":"US","ECCENTRICITY":"0.00032360","MEAN_ELEMENT_THEORY":"SGP4","MEAN_ANOMALY":"105.3623","GP_ID":"209627327","TLE_LINE1":"1 49152U 21082Y   22217.45157406 -.00000952  00000-0 -75184-4 0  9997","EPHEMERIS_TYPE":"0","LAUNCH_DATE":"2021-09-14","NORAD_CAT_ID":"49152","TIME_SYSTEM":"UTC","ARG_OF_PERICENTER":"254.7178","ELEMENT_SET_NO":"999","REF_FRAME":"TEME","SEMIMAJOR_AXIS":"6955.202","EPOCH":"2022-08-05T10:50:15.998784","RCS_SIZE":"LARGE","FILE":"3529733","CENTER_NAME":"EARTH","MEAN_MOTION_DDOT":"0.0000000000000","RA_OF_ASC_NODE":"322.6663","INCLINATION":"70.0003","APOAPSIS":"579.318"},{"RCS_SIZE":"LARGE","FILE":"3529733","CENTER_NAME":"EARTH","MEAN_MOTION_DDOT":"0.0000000000000","RA_OF_ASC_NODE":"322.6519","INCLINATION":"70.0003","APOAPSIS":"579.313","REF_FRAME":"TEME","SEMIMAJOR_AXIS":"6955.184","EPOCH":"2022-08-05T11:12:14.609664","ARG_OF_PERICENTER":"263.1136","ELEMENT_SET_NO":"999","GP_ID":"209627064","TLE_LINE1":"1 49153U 21082Z   22217.46683576 -.00000671  00000-0 -50596-4 0  9999","EPHEMERIS_TYPE":"0","LAUNCH_DATE":"2021-09-14","NORAD_CAT_ID":"49153","TIME_SYSTEM":"UTC","OBJECT_TYPE":"PAYLOAD","PERIAPSIS":"574.786","ECCENTRICITY":"0.00032540","COUNTRY_CODE":"US","MEAN_ANOMALY":"96.9652","MEAN_ELEMENT_THEORY":"SGP4","MEAN_MOTION_DOT":"-0.00000671","MEAN_MOTION":"14.96717315","REV_AT_EPOCH":"5162","BSTAR":"-0.00005059600000","CLASSIFICATION_TYPE":"U","OBJECT_NAME":"STARLINK-3072","OBJECT_ID":"2021-082Z","TLE_LINE2":"2 49153  70.0003 322.6519 0003254 263.1136  96.9652 14.96717315 51623","PERIOD":"96.211","DECAY_DATE":null,"SITE":"AFWTR"},{"INCLINATION":"69.9992","APOAPSIS":"579.300","RA_OF_ASC_NODE":"342.8707","MEAN_MOTION_DDOT":"0.0000000000000","FILE":"3529799","CENTER_NAME":"EARTH","RCS_SIZE":"LARGE","SEMIMAJOR_AXIS":"6955.191","EPOCH":"2022-08-05T11:17:30.558048","REF_FRAME":"TEME","ELEMENT_SET_NO":"999","ARG_OF_PERICENTER":"251.7577","LAUNCH_DATE":"2021-09-14","NORAD_CAT_ID":"49154","TIME_SYSTEM":"UTC","GP_ID":"209630101","TLE_LINE1":"1 49154U 21082AA  22217.47049257 -.00000090  00000-0  11928-6 0  9995","EPHEMERIS_TYPE":"0","COUNTRY_CODE":"US","ECCENTRICITY":"0.00032260","MEAN_ELEMENT_THEORY":"SGP4","MEAN_ANOMALY":"108.3231","PERIAPSIS":"574.812","OBJECT_TYPE":"PAYLOAD","MEAN_MOTION_DOT":"-0.00000090","BSTAR":"0.00000011928000","CLASSIFICATION_TYPE":"U","REV_AT_EPOCH":"5099","MEAN_MOTION":"14.96715235","SITE":"AFWTR","DECAY_DATE":null,"TLE_LINE2":"2 49154  69.9992 342.8707 0003226 251.7577 108.3231 14.96715235 50991","PERIOD":"96.211","OBJECT_NAME":"STARLINK-3068","OBJECT_ID":"2021-082AA"},{"ECCENTRICITY":"0.00032440","COUNTRY_CODE":"US","MEAN_ANOMALY":"97.7200","MEAN_ELEMENT_THEORY":"SGP4","PERIAPSIS":"573.652","OBJECT_TYPE":"PAYLOAD","MEAN_MOTION_DOT":"0.00003825","BSTAR":"0.00033880000000","CLASSIFICATION_TYPE":"U","MEAN_MOTION":"14.97085773","REV_AT_EPOCH":"5154","SITE":"AFWTR","DECAY_DATE":null,"TLE_LINE2":"2 49155  69.9996 321.7730 0003244 262.3590  97.7200 14.97085773 51548","PERIOD":"96.187","OBJECT_NAME":"STARLINK-3060","OBJECT_ID":"2021-082AB","INCLINATION":"69.9996","APOAPSIS":"578.164","RA_OF_ASC_NODE":"321.7730","MEAN_MOTION_DDOT":"0.0000000000000","CENTER_NAME":"EARTH","FILE":"3530042","RCS_SIZE":"LARGE","SEMIMAJOR_AXIS":"6954.043","EPOCH":"2022-08-05T18:58:46.142976","REF_FRAME":"TEME","ELEMENT_SET_NO":"999","ARG_OF_PERICENTER":"262.3590","LAUNCH_DATE":"2021-09-14","NORAD_CAT_ID":"49155","TIME_SYSTEM":"UTC","GP_ID":"209658811","TLE_LINE1":"1 49155U 21082AB  22217.79081184  .00003825  00000-0  33880-3 0  9992","EPHEMERIS_TYPE":"0"},{"REF_FRAME":"TEME","SEMIMAJOR_AXIS":"6955.215","EPOCH":"2022-08-05T12:12:31.377600","FILE":"3529810","CENTER_NAME":"EARTH","RCS_SIZE":"LARGE","INCLINATION":"70.0005","APOAPSIS":"579.404","RA_OF_ASC_NODE":"322.5257","MEAN_MOTION_DDOT":"0.0000000000000","GP_ID":"209629768","TLE_LINE1":"1 49156U 21082AC  22217.50869650 -.00000759  00000-0 -58362-4 0  9992","EPHEMERIS_TYPE":"0","NORAD_CAT_ID":"49156","LAUNCH_DATE":"2021-09-14","TIME_SYSTEM":"UTC","ARG_OF_PERICENTER":"263.7462","ELEMENT_SET_NO":"999","MEAN_MOTION_DOT":"-0.00000759","PERIAPSIS":"574.755","OBJECT_TYPE":"PAYLOAD","COUNTRY_CODE":"US","ECCENTRICITY":"0.00033420","MEAN_ELEMENT_THEORY":"SGP4","MEAN_ANOMALY":"96.3315","TLE_LINE2":"2 49156  70.0005 322.5257 0003342 263.7462  96.3315 14.96707491 51503","PERIOD":"96.211","OBJECT_ID":"2021-082AC","OBJECT_NAME":"STARLINK-3085","DECAY_DATE":null,"SITE":"AFWTR","MEAN_MOTION":"14.96707491","REV_AT_EPOCH":"5150","BSTAR":"-0.00005836200000","CLASSIFICATION_TYPE":"U"},{"ARG_OF_PERICENTER":"246.1418","ELEMENT_SET_NO":"999","EPHEMERIS_TYPE":"0","GP_ID":"209627564","TLE_LINE1":"1 49157U 21082AD  22217.46562113  .00000917  00000-0  88132-4 0  9994","TIME_SYSTEM":"UTC","LAUNCH_DATE":"2021-09-14","NORAD_CAT_ID":"49157","FILE":"3529733","CENTER_NAME":"EARTH","RCS_SIZE":"LARGE","APOAPSIS":"579.560","INCLINATION":"69.9988","RA_OF_ASC_NODE":"342.8817","MEAN_MOTION_DDOT":"0.0000000000000","REF_FRAME":"TEME","EPOCH":"2022-08-05T11:10:29.665632","SEMIMAJOR_AXIS":"6955.196","REV_AT_EPOCH":"5101","MEAN_MOTION":"14.96713675","CLASSIFICATION_TYPE":"U","BSTAR":"0.00008813200000","PERIOD":"96.211","TLE_LINE2":"2 49157  69.9988 342.8817 0003594 246.1418 113.9364 14.96713675 51010","OBJECT_ID":"2021-082AD","OBJECT_NAME":"STARLINK-3051","SITE":"AFWTR","DECAY_DATE":null,"PERIAPSIS":"574.561","OBJECT_TYPE":"PAYLOAD","MEAN_ELEMENT_THEORY":"SGP4","MEAN_ANOMALY":"113.9364","COUNTRY_CODE":"US","ECCENTRICITY":"0.00035940","MEAN_MOTION_DOT":"0.00000917"},{"MEAN_ANOMALY":"101.4503","MEAN_ELEMENT_THEORY":"SGP4","COUNTRY_CODE":"US","ECCENTRICITY":"0.00032950","PERIAPSIS":"574.766","OBJECT_TYPE":"PAYLOAD","MEAN_MOTION_DOT":"0.00001365","CLASSIFICATION_TYPE":"U","BSTAR":"0.00012726000000","MEAN_MOTION":"14.96714560","REV_AT_EPOCH":"5101","SITE":"AFWTR","DECAY_DATE":null,"PERIOD":"96.211","TLE_LINE2":"2 49158  70.0014 342.9039 0003295 258.6285 101.4503 14.96714560 51010","OBJECT_NAME":"STARLINK-3083","OBJECT_ID":"2021-082AE","APOAPSIS":"579.350","INCLINATION":"70.0014","RA_OF_ASC_NODE":"342.9039","MEAN_MOTION_DDOT":"0.0000000000000","CENTER_NAME":"EARTH","FILE":"3529733","RCS_SIZE":"LARGE","EPOCH":"2022-08-05T11:02:08.488608","SEMIMAJOR_AXIS":"6955.193","REF_FRAME":"TEME","ELEMENT_SET_NO":"999","ARG_OF_PERICENTER":"258.6285","TIME_SYSTEM":"UTC","LAUNCH_DATE":"2021-09-14","NORAD_CAT_ID":"49158","EPHEMERIS_TYPE":"0","TLE_LINE1":"1 49158U 21082AE  22217.45982047  .00001365  00000-0  12726-3 0  9999","GP_ID":"209625830"},{"REF_FRAME":"TEME","SEMIMAJOR_AXIS":"6950.176","EPOCH":"2022-08-05T12:30:22.937184","RCS_SIZE":"LARGE","CENTER_NAME":"EARTH","FILE":"3529830","RA_OF_ASC_NODE":"2.8927","MEAN_MOTION_DDOT":"0.0000000000000","INCLINATION":"70.0020","APOAPSIS":"574.273","GP_ID":"209630470","TLE_LINE1":"1 49159U 21082AF  22217.52109881  .00001149  00000-0  10404-3 0  9996","EPHEMERIS_TYPE":"0","LAUNCH_DATE":"2021-09-14","NORAD_CAT_ID":"49159","TIME_SYSTEM":"UTC","ARG_OF_PERICENTER":"250.1300","ELEMENT_SET_NO":"999","MEAN_MOTION_DOT":"0.00001149","OBJECT_TYPE":"PAYLOAD","PERIAPSIS":"569.809","ECCENTRICITY":"0.00032110","COUNTRY_CODE":"US","MEAN_ELEMENT_THEORY":"SGP4","MEAN_ANOMALY":"109.9513","OBJECT_NAME":"STARLINK-3056","OBJECT_ID":"2021-082AF","TLE_LINE2":"2 49159  70.0020   2.8927 0003211 250.1300 109.9513 14.98335416 50529","PERIOD":"96.107","SITE":"AFWTR","DECAY_DATE":null,"MEAN_MOTION":"14.98335416","REV_AT_EPOCH":"5052","BSTAR":"0.00010404000000","CLASSIFICATION_TYPE":"U"},{"ELEMENT_SET_NO":"999","ARG_OF_PERICENTER":"260.9675","LAUNCH_DATE":"2021-09-14","NORAD_CAT_ID":"49160","TIME_SYSTEM":"UTC","GP_ID":"209658069","TLE_LINE1":"1 49160U 21082AG  22217.57832670 -.00000514  00000-0 -35264-4 0  9991","EPHEMERIS_TYPE":"0","INCLINATION":"70.0009","APOAPSIS":"574.255","MEAN_MOTION_DDOT":"0.0000000000000","RA_OF_ASC_NODE":"2.7487","FILE":"3530042","CENTER_NAME":"EARTH","RCS_SIZE":"LARGE","SEMIMAJOR_AXIS":"6950.185","EPOCH":"2022-08-05T13:52:47.426880","REF_FRAME":"TEME","BSTAR":"-0.00003526400000","CLASSIFICATION_TYPE":"U","REV_AT_EPOCH":"5050","MEAN_MOTION":"14.98332475","SITE":"AFWTR","DECAY_DATE":null,"TLE_LINE2":"2 49160  70.0009   2.7487 0003172 260.9675  99.1125 14.98332475 50507","PERIOD":"96.107","OBJECT_NAME":"STARLINK-3095","OBJECT_ID":"2021-082AG","COUNTRY_CODE":"US","ECCENTRICITY":"0.00031720","MEAN_ELEMENT_THEORY":"SGP4","MEAN_ANOMALY":"99.1125","PERIAPSIS":"569.846","OBJECT_TYPE":"PAYLOAD","MEAN_MOTION_DOT":"-0.00000514"},{"GP_ID":"209630775","TLE_LINE1":"1 49161U 21082AH  22217.85012676  .00001318  00000-0  11817-3 0  9997","EPHEMERIS_TYPE":"0","LAUNCH_DATE":"2021-09-14","NORAD_CAT_ID":"49161","TIME_SYSTEM":"UTC","ARG_OF_PERICENTER":"249.4147","ELEMENT_SET_NO":"999","REF_FRAME":"TEME","SEMIMAJOR_AXIS":"6950.163","EPOCH":"2022-08-05T20:24:10.952064","RCS_SIZE":"LARGE","FILE":"3529831","CENTER_NAME":"EARTH","MEAN_MOTION_DDOT":"0.0000000000000","RA_OF_ASC_NODE":"2.0573","INCLINATION":"70.0005","APOAPSIS":"574.338","OBJECT_NAME":"STARLINK-3080","OBJECT_ID":"2021-082AH","TLE_LINE2":"2 49161  70.0005   2.0573 0003323 249.4147 110.6655 14.98339558 50558","PERIOD":"96.106","SITE":"AFWTR","DECAY_DATE":null,"MEAN_MOTION":"14.98339558","REV_AT_EPOCH":"5055","BSTAR":"0.00011817000000","CLASSIFICATION_TYPE":"U","MEAN_MOTION_DOT":"0.00001318","OBJECT_TYPE":"PAYLOAD","PERIAPSIS":"569.719","COUNTRY_CODE":"US","ECCENTRICITY":"0.00033230","MEAN_ELEMENT_THEORY":"SGP4","MEAN_ANOMALY":"110.6655"}];
